NORAD_CAT_ID,OBJECT_NAME,OBJECT_TYPE,EPOCH,MEAN_MOTION,ECCENTRICITY,INCLINATION,RA_OF_ASC_NODE,ARG_OF_PERICENTER,MEAN_ANOMALY,BSTAR,MEAN_MOTION_DOT,MEAN_MOTION_DDOT,TLE_LINE0,TLE_LINE1,TLE_LINE2,SEMIMAJOR_AXIS,PERIOD,APOGEE,PERIGEE,DECAYED
53617.0,STARLINK-4601,PAYLOAD,2022-11-29 22:00:00,15.08845329,0.0001888,53.2159,202.1817,49.0641,303.3914,-0.00049797,-8.206e-05,0.0,0 STARLINK-4601,1 53617U 22104AF  22333.91667824 -.00008206  00000-0 -49797-3 0  9994,2 53617  53.2159 202.1817 0001888  49.0641 303.3914 15.08845329 14541,6917.864000000001,95.437,541.035,538.423,0.0
53617.0,STARLINK-4601,PAYLOAD,2022-11-30 14:00:01,15.08810746,0.000166,53.2163,199.1871,53.0566,322.6701,0.0027311,0.00043411,0.0,0 STARLINK-4601,1 53617U 22104AF  22334.58335648  .00043411  00000-0  27311-2 0  9996,2 53617  53.2163 199.1871 0001660  53.0566 322.6701 15.08810746  1303,6917.97,95.439,540.9830000000002,538.686,0.0
53617.0,STARLINK-4601,PAYLOAD,2022-11-30 22:00:00,15.08851381,0.0001812,53.2169,197.693,50.5924,336.648,-0.0030354,-0.00048289,0.0,0 STARLINK-4601,1 53617U 22104AF  22334.91667824 -.00048289  00000-0 -30354-2 0  9998,2 53617  53.2169 197.6930 0001812  50.5924 336.6480 15.08851381  1306,6917.846,95.437,540.964,538.457,0.0
53617.0,STARLINK-4601,PAYLOAD,2022-12-01 06:00:00,15.08850888,0.0001808,53.2165,196.1957,46.8966,351.9187,-0.0018796,-0.00030087,0.0,0 STARLINK-4601,1 53617U 22104AF  22335.25001157 -.00030087  00000-0 -18796-2 0  9990,2 53617  53.2165 196.1957 0001808  46.8966 351.9187 15.08850888 14741,6917.847,95.437,540.9630000000002,538.461,0.0
53617.0,STARLINK-4601,PAYLOAD,2022-12-01 14:00:01,15.08831779,0.0001701,53.2166,194.6983,54.2265,356.1923,0.0023475,0.00037262,0.0,0 STARLINK-4601,1 53617U 22104AF  22335.58334491  .00037262  00000-0  23475-2 0  9996,2 53617  53.2166 194.6983 0001701  54.2265 356.1923 15.08831779  1302,6917.906,95.438,540.947,538.594,0.0
53617.0,STARLINK-4601,PAYLOAD,2022-12-01 22:00:00,15.08851497,0.0001862,53.2166,193.2037,49.0209,12.9974,-0.00050974,-8.394e-05,0.0,0 STARLINK-4601,1 53617U 22104AF  22335.91667824 -.00008394  00000-0 -50974-3 0  9993,2 53617  53.2166 193.2037 0001862  49.0209  12.9974 15.08851497 14840,6917.845,95.437,540.998,538.422,0.0
53617.0,STARLINK-4601,PAYLOAD,2022-12-02 14:00:01,15.08824248,0.0001631,53.2165,190.2093,54.1729,31.0488,0.0017282,0.00027312,0.0,0 STARLINK-4601,1 53617U 22104AF  22336.58334491  .00027312  00000-0  17282-2 0  9991,2 53617  53.2165 190.2093 0001631  54.1729  31.0488 15.08824248  1309,6917.929,95.439,540.922,538.665,0.0
53617.0,STARLINK-4601,PAYLOAD,2022-12-02 22:00:00,15.08833047,0.0001799,53.2162,188.7148,48.8695,47.9412,-8.413600000000001e-05,-1.627e-05,0.0,0 STARLINK-4601,1 53617U 22104AF  22336.91667824 -.00001627  00000-0 -84136-4 0  9994,2 53617  53.2162 188.7148 0001799  48.8695  47.9412 15.08833047  1306,6917.901999999999,95.438,541.011,538.5219999999998,0.0
53617.0,STARLINK-4601,PAYLOAD,2022-12-03 06:00:00,15.08865284,0.0001706,53.2158,187.2176,48.852,59.5408,-0.004613,-0.00073011,0.0,0 STARLINK-4601,1 53617U 22104AF  22337.25001157 -.00073011  00000-0 -46130-2 0  9999,2 53617  53.2158 187.2176 0001706  48.8520  59.5408 15.08865284 15049,6917.803000000001,95.436,540.8480000000002,538.488,0.0
53617.0,STARLINK-4601,PAYLOAD,2022-12-03 14:00:01,15.08812015,0.0001584,53.2159,185.7205,54.3251,65.6618,0.0010909,0.00017103,0.0,0 STARLINK-4601,1 53617U 22104AF  22337.58334491  .00017103  00000-0  10909-2 0  9998,2 53617  53.2159 185.7205 0001584  54.3251  65.6618 15.08812015  1302,6917.965999999999,95.439,540.927,538.735,0.0
53617.0,STARLINK-4601,PAYLOAD,2022-12-03 22:00:00,15.08811746,0.0001758,53.2156,184.2261,48.2697,83.2889,0.00034474,5.199e-05,0.0,0 STARLINK-4601,1 53617U 22104AF  22337.91667824  .00005199  00000-0  34474-3 0  9990,2 53617  53.2156 184.2261 0001758  48.2697  83.2889 15.08811746  1300,6917.967,95.439,541.048,538.616,0.0
53617.0,STARLINK-4601,PAYLOAD,2022-12-04 14:00:01,15.08825342,0.0001661,53.2153,181.2316,55.6065,99.0875,0.00069649,0.0001081,0.0,0 STARLINK-4601,1 53617U 22104AF  22338.58334491  .00010810  00000-0  69649-3 0  9993,2 53617  53.2153 181.2316 0001661  55.6065  99.0875 15.08825342  1306,6917.925,95.438,540.939,538.641,0.0
53617.0,STARLINK-4601,PAYLOAD,2022-12-04 22:00:00,15.08817118,0.0001834,53.215,179.737,48.9067,117.3721,0.001013,0.00015861,0.0,0 STARLINK-4601,1 53617U 22104AF  22338.91667824  .00015861  00000-0  10130-2 0  9990,2 53617  53.2150 179.7370 0001834  48.9067 117.3721 15.08817118  1300,6917.95,95.439,541.0840000000002,538.547,0.0
53617.0,STARLINK-4601,PAYLOAD,2022-12-05 06:00:00,15.08845816,0.0001748,53.2148,178.2394,50.4555,127.397,-0.0017111,-0.00027422,0.0,0 STARLINK-4601,1 53617U 22104AF  22339.25001157 -.00027422  00000-0 -17111-2 0  9993,2 53617  53.2148 178.2394 0001748  50.4555 127.3970 15.08845816 15343,6917.863,95.437,540.937,538.518,0.0
53617.0,STARLINK-4601,PAYLOAD,2022-12-05 12:00:00,15.088208800000002,0.0001718,53.2147,177.1162,55.1995,41.35,0.0023917,0.00037961,0.0,0 STARLINK-4601,1 53617U 22104AF  22339.50001157  .00037961  00000-0  23917-2 0  9999,2 53617  53.2147 177.1162 0001718  55.1995  41.3500 15.08820880  1309,6917.939,95.439,540.992,538.615,0.0
53617.0,STARLINK-4601,PAYLOAD,2022-12-05 17:56:00,15.08832253,0.0001727,53.2176,176.0065,49.5278,310.5865,4.108e-05,3.66e-06,0.0,0 STARLINK-4601,1 53617U 22104AF  22339.74722478  .00000366  00000-0  41080-4 0  9993,2 53617  53.2176 176.0065 0001727  49.5278 310.5865 15.08832253 15422,6917.904,95.438,540.964,538.5740000000002,0.0
53617.0,STARLINK-4601,PAYLOAD,2022-12-05 19:31:23,15.08830344,0.0001795,53.2172,175.7098,49.6378,310.4770000000001,9.3954e-05,1.207e-05,0.0,0 STARLINK-4601,1 53617U 22104AF  22339.81346447  .00001207  00000-0  93954-4 0  9991,2 53617  53.2172 175.7098 0001795  49.6378 310.4770 15.08830344 16005,6917.91,95.438,541.0169999999998,538.533,0.0
53617.0,STARLINK-4601,PAYLOAD,2022-12-06 01:52:55,15.0883216,0.0001813,53.2171,174.5203,50.1058,310.0094,0.00010265,1.346e-05,0.0,0 STARLINK-4601,1 53617U 22104AF  22340.07842451  .00001346  00000-0  10265-3 0  9994,2 53617  53.2171 174.5203 0001813  50.1058 310.0094 15.08832160 16049,6917.904,95.438,541.024,538.515,0.0
53617.0,STARLINK-4601,PAYLOAD,2022-12-06 19:22:10,15.08840023,0.0001818,53.2172,171.24900000000005,51.6841,308.4314,8.657e-05,1.09e-05,0.0,0 STARLINK-4601,1 53617U 22104AF  22340.80706203  .00001090  00000-0  86570-4 0  9998,2 53617  53.2172 171.2490 0001818  51.6841 308.4314 15.08840023 16158,6917.88,95.438,541.003,538.488,0.0
53617.0,STARLINK-4601,PAYLOAD,2022-12-06 22:32:56,15.08841013,0.0001846,53.2172,170.6544,51.6672,308.4486,9.1606e-05,1.17e-05,0.0,0 STARLINK-4601,1 53617U 22104AF  22340.93954105  .00001170  00000-0  91606-4 0  9993,2 53617  53.2172 170.6544 0001846  51.6672 308.4486 15.08841013 15603,6917.877,95.437,541.019,538.465,0.0
53617.0,STARLINK-4601,PAYLOAD,2022-12-07 19:12:56,15.08848391,0.000188,53.2169,166.7886,53.3789,306.7376,9.1968e-05,1.176e-05,0.0,0 STARLINK-4601,1 53617U 22104AF  22341.80065376  .00001176  00000-0  91968-4 0  9990,2 53617  53.2169 166.7886 0001880  53.3789 306.7376 15.08848391 16303,6917.855,95.437,541.02,538.419,0.0
53617.0,STARLINK-4601,PAYLOAD,2022-12-08 12:42:11,15.08839985,0.0001961,53.2169,163.5179,52.3125,307.8045,-2.2204e-05,-6.42e-06,0.0,0 STARLINK-4601,1 53617U 22104AF  22342.52930149 -.00000642  00000-0 -22204-4 0  9995,2 53617  53.2169 163.5179 0001961  52.3125 307.8045 15.08839985 16412,6917.88,95.438,541.102,538.389,0.0
53617.0,STARLINK-4601,PAYLOAD,2022-12-08 19:03:43,15.088432199999998,0.0001892,53.2171,162.3289,53.8498,306.2669,-2.2564e-05,-6.47e-06,0.0,0 STARLINK-4601,1 53617U 22104AF  22342.79425850 -.00000647  00000-0 -22564-4 0  9996,2 53617  53.2171 162.3289 0001892  53.8498 306.2669 15.08843220 15888,6917.871,95.437,541.044,538.427,0.0
53617.0,STARLINK-4601,PAYLOAD,2022-12-09 12:32:58,15.0884539,0.0002072,53.2186,159.0629,59.2987,300.8209,-1.5086e-05,-5.28e-06,0.0,0 STARLINK-4601,1 53617U 22104AF  22343.52289555 -.00000528  00000-0 -15086-4 0  9997,2 53617  53.2186 159.0629 0002072  59.2987 300.8209 15.08845390 16565,6917.864000000001,95.437,541.1619999999998,538.2959999999998,0.0
53617.0,STARLINK-4601,PAYLOAD,2022-12-09 18:54:32,15.08825425,0.0001961,53.2183,157.8728,44.8175,315.2976,-0.00017606,-3.088e-05,0.0,0 STARLINK-4601,1 53617U 22104AF  22343.78787453 -.00003088  00000-0 -17606-3 0  9998,2 53617  53.2183 157.8728 0001961  44.8175 315.2976 15.08825425 16033,6917.925,95.438,541.1469999999998,538.433,0.0
53617.0,STARLINK-4601,PAYLOAD,2022-12-10 12:23:52,15.08777059,0.0001736,53.2189,154.60299999999995,45.7208,314.3926,-0.00073096,-0.00011882,0.0,0 STARLINK-4601,1 53617U 22104AF  22344.51657485 -.00011882  00000-0 -73096-3 0  9997,2 53617  53.2189 154.6030 0001736  45.7208 314.3926 15.08777059 16716,6918.073,95.442,541.139,538.737,0.0
53617.0,STARLINK-4601,PAYLOAD,2022-12-10 17:09:56,15.08832197,0.0001503,53.2181,153.708,53.9491,306.164,1.7296e-06,-2.6e-06,0.0,0 STARLINK-4601,1 53617U 22104AF  22344.71523839 -.00000260  00000-0  17296-5 0  9993,2 53617  53.2181 153.7080 0001503  53.9491 306.1640 15.08832197 16177,6917.904,95.438,540.809,538.729,0.0
53617.0,STARLINK-4601,PAYLOAD,2022-12-10 18:45:19,15.08830993,0.0001681,53.2181,153.4097,47.5781,312.5353,-7.5764999999999985e-06,-4.09e-06,0.0,0 STARLINK-4601,1 53617U 22104AF  22344.78147895 -.00000409  00000-0 -75765-5 0  9995,2 53617  53.2181 153.4097 0001681  47.5781 312.5353 15.08830993 16758,6917.908,95.438,540.936,538.61,0.0
53617.0,STARLINK-4601,PAYLOAD,2022-12-10 21:56:05,15.08841516,0.0001268,53.218,152.8149,53.9581,306.1529,7.866600000000001e-05,9.64e-06,0.0,0 STARLINK-4601,1 53617U 22104AF  22344.91394912  .00000964  00000-0  78666-4 0  9990,2 53617  53.2180 152.8149 0001268  53.9581 306.1529 15.08841516 16205,6917.876,95.437,540.618,538.864,0.0
